#aV2010 11 30  0  0   .00000000      96 DD+AD WGS84 FIT  NGA
## 1612 172800.00000000   900.00000000 55530  .0000000000000
+   32     1  2  3  4  5  6  7  8  9 10 11 12 13 14 15 16 17
+         18 19 20 21 22 23 24 25 26 27 28 29 30 31 32  0  0
+          0  0  0  0  0  0  0  0  0  0  0  0  0  0  0  0  0
+          0  0  0  0  0  0  0  0  0  0  0  0  0  0  0  0  0
+          0  0  0  0  0  0  0  0  0  0  0  0  0  0  0  0  0
++         0  0  0  0  0  0  0  0  0  0  0  0  0  0  0  0  0
++         0  0  0  0  0  0  0  0  0  0  0  0  0  0  0  0  0
++         0  0  0  0  0  0  0  0  0  0  0  0  0  0  0  0  0
++         0  0  0  0  0  0  0  0  0  0  0  0  0  0  0  0  0
++         0  0  0  0  0  0  0  0  0  0  0  0  0  0  0  0  0
%c cc cc ccc ccc cccc cccc cccc cccc ccccc ccccc ccccc ccccc
%c cc cc ccc ccc cccc cccc cccc cccc ccccc ccccc ccccc ccccc
%f  0.0000000  0.000000000  0.00000000000  0.000000000000000
%f  0.0000000  0.000000000  0.00000000000  0.000000000000000
%i    0    0    0    0      0      0      0      0         0
%i    0    0    0    0      0      0      0      0         0
/*      NGA, ST. LOUIS,MO.                                  
/*   EPHEMERIS COMPUTED FROM  3 DAYS OF DATA                
/* CCCCCCCCCCCCCCCCCCCCCCCCCCCCCCCCCCCCCCCCCCCCCCCCCCCCCCCCC
/* CCCCCCCCCCCCCCCCCCCCCCCCCCCCCCCCCCCCCCCCCCCCCCCCCCCCCCCCC
*  2010 11 30 12 15   .00000000                                                 
P  1  25265.619607   5818.850565  -6173.065395   -186.993879                    
V  1  -7791.439467   1919.893103 -30524.255930      -.035159                    
P  2 -18815.571798   5204.378604 -17789.822963    305.689455                    
V  2  10495.105850 -20413.352784 -17537.168621       .024122                    
P  3  17518.275195   -197.096124  19644.434375    642.203737                    
V  3  13179.706721  22295.207888 -10975.146432       .051634                    
P  4 -15059.035370  -5646.890036 -21369.542184    232.784382                    
V  4  14599.477206 -22382.363582  -4058.779459       .097676                    
P  5 -25669.958491   2925.761998   6365.553068    -75.507076                    
V  5  -7900.873912  -3239.365654 -30206.661099      -.059797                    
P  6  18521.698590   4878.043086  18635.370535    404.459045                    
V  6   9988.745597  21181.110062 -15421.425274      -.112854                    
P  7   2145.416569 -21609.732720  15156.719290      -.135968                    
V  7  12354.232532 -14938.056016 -23247.252924       .003848                    
P  8  -6940.638202 -13793.750920  21525.785923      7.007060                    
V  8  17411.709492 -21070.029844  -8423.529945       .000014                    
P  9 -15019.293109  21793.632635   1561.245191     45.718331                    
V  9   -425.082387  -3392.602500  32157.322440       .023455                    
P 10 -24437.448218  -7723.537279  -7854.226301    -59.133177                    
V 10   9809.402753  -1737.810541 -29194.699690      -.008359                    
P 11   9748.834939 -24453.171217   1165.876867   -107.785077                    
V 11   4459.862746   3573.136080  30225.952923      -.029415                    
P 12 -14749.389177  11617.417960 -18688.019759    -49.143888                    
V 12 -23650.206378  -3189.351296  16800.623375       .034746                    
P 13  -4347.153921 -24928.376550  -8122.976576    290.519229                    
V 13   5396.086839   8726.269225 -30205.615984      -.011265                    
P 14  15081.929992  19974.910411  -8929.676952    111.641108                    
V 14   2880.700461  11278.209344  29434.437565       .032193                    
P 15  -9018.415211  14304.104114  20468.491025   -177.310606                    
V 15 -12906.735218 -22610.831358  10267.531064       .043254                    
P 16  26620.710284   1225.993958   1907.953089   -130.465572                    
V 16   2149.419231   2354.946763 -31746.626648      -.032118                    
P 17 -14891.148010 -21069.647521  -6671.901442    178.610902                    
V 17  -1293.019986  -8840.927918  30078.448579       .008677                    
P 18   8044.341714  15669.335117  20271.852782    107.616830                    
V 18 -25084.171719  -1078.570659  10576.112050       .021324                    
P 19  11550.301122 -11139.004125  21115.251686    -87.782030                    
V 19  10705.198868  24663.640685   7477.724458      -.034228                    
P 20  11390.295360 -14085.757043 -19544.379612     49.294224                    
V 20  24573.854689   2211.575212  12885.155248      -.001901                    
P 21    512.310406  20877.654176  16411.071662   -106.032548                    
V 21 -13765.974022  15428.172409 -20261.779089      -.027319                    
P 22  19451.498858  11972.765352  13801.937609    157.847608                    
V 22 -17451.299331   1191.170161  23761.720902      -.008224                    
P 23   3353.433631 -20012.194352 -16958.667282    340.743484                    
V 23  11093.935219  18685.729664 -20185.205080      -.021290                    
P 24  17847.621361 -19071.455713   4066.947269    343.511101                    
V 24   -376.631777   6129.184050  31082.890365       .034131                    
P 25   -240.698309  15201.597866 -21796.719284    -54.883948                    
V 25 -27598.508003  -1304.183861   -613.284530      -.023869                    
P 26 -14946.743974    696.327395  21426.142216    -61.914238                    
V 26 -10548.036716 -26412.910951  -5930.990908      -.083954                    
P 27 -17874.911687  17288.891856   9655.756544    212.574228                    
V 27   4080.134062 -10777.458179  29120.738882       .036060                    
P 28 -16519.910400 -13174.774204  16761.488052      7.124217                    
V 28  20237.029263    779.423079  20914.432583       .017863                    
P 29   3715.324368  24476.217082  -9594.070834    167.241517                    
V 29  -7365.654023 -10148.214001 -28474.322041       .026814                    
P 30  17832.742372  11769.733236 -16236.176807    300.809883                    
V 30 -19846.679858   1394.230302 -21339.867800       .032415                    
P 31  15586.208677   2398.249139 -21188.616631     13.893499                    
V 31 -14867.205890  22927.240517  -8076.379814       .038274                    
P 32  19465.281948  -8146.358046 -15573.693069   -142.950141                    
V 32  19932.803695   5407.632509  22029.112126      -.083556                    
EOF
